{
    "links": {
        "self": "http://www.neowsapp.com/rest/v1/neo/3759281?api_key=iIulBulltgU6a56xZRHN4H3l9WmuAYTsLGpBGhQ2"
    },
    "id": "3759281",
    "neo_reference_id": "3759281",
    "name": "(2016 RA20)",
    "designation": "2016 RA20",
    "nasa_jpl_url": "http://ssd.jpl.nasa.gov/sbdb.cgi?sstr=3759281",
    "absolute_magnitude_h": 23.0,
    "estimated_diameter": {
        "kilometers": {
            "estimated_diameter_min": 0.0667659413,
            "estimated_diameter_max": 0.1492931834
        },
        "meters": {
            "estimated_diameter_min": 66.7659413495,
            "estimated_diameter_max": 149.2931834393
        },
        "miles": {
            "estimated_diameter_min": 0.0414864197,
            "estimated_diameter_max": 0.0927664547
        },
        "feet": {
            "estimated_diameter_min": 219.0483710172,
            "estimated_diameter_max": 489.807047955
        }
    },
    "is_potentially_hazardous_asteroid": false,
    "close_approach_data": [
        {
            "close_approach_date": "2016-08-14",
            "close_approach_date_full": "2016-Aug-14 08:44",
            "epoch_date_close_approach": 1471164240000,
            "relative_velocity": {
                "kilometers_per_second": "16.4094850605",
                "kilometers_per_hour": "59074.146217867",
                "miles_per_hour": "36706.3771318741"
            },
            "miss_distance": {
                "astronomical": "0.1115772382",
                "lunar": "43.4035456598",
                "kilometers": "16691717.175202634",
                "miles": "10371752.1081349892"
            },
            "orbiting_body": "Earth"
        }
    ],
    "orbital_data": {
        "orbit_id": "2",
        "orbit_determination_date": "2017-04-06 08:24:02",
        "first_observation_date": "2016-09-07",
        "last_observation_date": "2016-09-10",
        "data_arc_in_days": 3,
        "observations_used": 19,
        "orbit_uncertainty": "9",
        "minimum_orbit_intersection": ".104077",
        "jupiter_tisserand_invariant": "2.957",
        "epoch_osculation": "2457639.5",
        "eccentricity": ".7061428959271761",
        "semi_major_axis": "2.658824587333506",
        "inclination": "9.067314059844717",
        "ascending_node_longitude": "107.5111623662923",
        "orbital_period": "1583.554286590187",
        "perihelion_distance": ".7813144934714453",
        "perihelion_argument": "159.7048363905044",
        "aphelion_distance": "4.536334681195568",
        "perihelion_time": "2457579.518710641206",
        "mean_anomaly": "13.63594816547899",
        "mean_motion": ".2273366963472883",
        "equinox": "J2000",
        "orbit_class": {
            "orbit_class_type": "APO",
            "orbit_class_description": "Near-Earth asteroid orbits which cross the Earth’s orbit similar to that of 1862 Apollo",
            "orbit_class_range": "a (semi-major axis) > 1.0 AU; q (perihelion) < 1.017 AU"
        }
    },
    "is_sentry_object": false
}